NORAD_CAT_ID,OBJECT_NAME,OBJECT_TYPE,EPOCH,MEAN_MOTION,ECCENTRICITY,INCLINATION,RA_OF_ASC_NODE,ARG_OF_PERICENTER,MEAN_ANOMALY,BSTAR,MEAN_MOTION_DOT,MEAN_MOTION_DDOT,TLE_LINE0,TLE_LINE1,TLE_LINE2,SEMIMAJOR_AXIS,PERIOD,APOGEE,PERIGEE,DECAYED
53019.0,STARLINK-4282,PAYLOAD,2024-04-28 14:07:51,15.08818909,0.000162,53.217,257.216,67.0426,293.0736,-0.00025177,-4.29e-05,0.0,0 STARLINK-4282,1 53019U 22076AK  24119.58878831 -.00004290  00000-0 -25177-3 0  9992,2 53019  53.2170 257.2160 0001620  67.0426 293.0736 15.08818909100319,6917.945,95.439,540.931,538.689,0.0
53019.0,STARLINK-4282,PAYLOAD,2024-04-28 18:54:00,15.08827039,0.0001423,53.2154,256.3191,86.3407,273.7748,-0.00010446,-1.949e-05,0.0,0 STARLINK-4282,1 53019U 22076AK  24119.78750390 -.00001949  00000-0 -10446-3 0  9994,2 53019  53.2154 256.3191 0001423  86.3407 273.7748 15.08827039100816,6917.92,95.438,540.769,538.801,0.0
53019.0,STARLINK-4282,PAYLOAD,2024-04-29 12:23:14,15.0884261,0.0001571,53.215,253.0488,86.8081,273.3091,-0.00020895,-3.612e-05,0.0,0 STARLINK-4282,1 53019U 22076AK  24120.51613692 -.00003612  00000-0 -20895-3 0  9998,2 53019  53.2150 253.0488 0001571  86.8081 273.3091 15.08842610100923,6917.872,95.437,540.824,538.651,0.0
53019.0,STARLINK-4282,PAYLOAD,2024-04-29 18:44:46,15.08845798,0.0001319,53.2155,251.8589,87.1195,272.9948,0.00015554,2.189e-05,0.0,0 STARLINK-4282,1 53019U 22076AK  24120.78109734  .00002189  00000-0  15554-3 0  9996,2 53019  53.2155 251.8589 0001319  87.1195 272.9948 15.08845798100494,6917.863,95.437,540.64,538.815,0.0
53019.0,STARLINK-4282,PAYLOAD,2024-04-30 13:49:24,15.0884261,0.0001362,53.2166,248.288,91.7049,268.4099,0.00041493,6.322e-05,0.0,0 STARLINK-4282,1 53019U 22076AK  24121.57598258  .00006322  00000-0  41493-3 0  9991,2 53019  53.2166 248.2880 0001362  91.7049 268.4099 15.08842610101080,6917.872,95.437,540.68,538.795,0.0
53019.0,STARLINK-4282,PAYLOAD,2024-04-30 15:24:48,15.08849649,0.0001447,53.2152,247.9941,94.6629,265.4528,0.00051041,7.847e-05,0.0,0 STARLINK-4282,1 53019U 22076AK  24121.64222281  .00007847  00000-0  51041-3 0  9992,2 53019  53.2152 247.9941 0001447  94.6629 265.4528 15.08849649100621,6917.851,95.437,540.717,538.715,0.0
53019.0,STARLINK-4282,PAYLOAD,2024-05-01 07:18:38,15.08851957,0.0001369,53.2162,245.025,96.7809,263.3339,0.00027066,4.024e-05,0.0,0 STARLINK-4282,1 53019U 22076AK  24122.30461606  .00004024  00000-0  27066-3 0  9996,2 53019  53.2162 245.0250 0001369  96.7809 263.3339 15.08851957100723,6917.844,95.437,540.656,538.762,0.0
53019.0,STARLINK-4282,PAYLOAD,2024-05-01 15:15:34,15.08843516,0.0001394,53.2164,243.5371,98.7783,261.3367,1.6476e-06,-2.62e-06,0.0,0 STARLINK-4282,1 53019U 22076AK  24122.63581752 -.00000262  00000-0  16476-5 0  9993,2 53019  53.2164 243.5371 0001394  98.7783 261.3367 15.08843516101242,6917.87,95.437,540.699,538.77,0.0
53019.0,STARLINK-4282,PAYLOAD,2024-05-02 13:30:59,15.08838537,0.0001382,53.2185,239.374,103.0506,257.064,-2.0121e-05,-6.08e-06,0.0,0 STARLINK-4282,1 53019U 22076AK  24123.56318715 -.00000608  00000-0 -20121-4 0  9999,2 53019  53.2185 239.3740 0001382 103.0506 257.0640 15.08838537101386,6917.885,95.438,540.706,538.794,0.0
53019.0,STARLINK-4282,PAYLOAD,2024-05-02 15:06:22,15.08841915,0.0001288,53.2165,239.0735,80.1895,279.9243,2.0193e-05,3.4e-07,0.0,0 STARLINK-4282,1 53019U 22076AK  24123.62942437  .00000034  00000-0  20193-4 0  9990,2 53019  53.2165 239.0735 0001288  80.1895 279.9243 15.08841915100921,6917.875,95.437,540.631,538.849,0.0
53019.0,STARLINK-4282,PAYLOAD,2024-05-03 13:21:45,15.08846057,0.0001557,53.2163,234.9114,90.1415,269.9756,0.00017207,2.452e-05,0.0,0 STARLINK-4282,1 53019U 22076AK  24124.55677848  .00002452  00000-0  17207-3 0  9991,2 53019  53.2163 234.9114 0001557  90.1415 269.9756 15.08846057101530,6917.862,95.437,540.804,538.65,0.0
53019.0,STARLINK-4282,PAYLOAD,2024-05-03 14:57:08,15.0884939,0.0001268,53.2165,234.6152,64.1091,296.0031,0.00021268,3.099e-05,0.0,0 STARLINK-4282,1 53019U 22076AK  24124.62301722  .00003099  00000-0  21268-3 0  9994,2 53019  53.2165 234.6152 0001268  64.1091 296.0031 15.08849390101070,6917.852,95.437,540.594,538.84,0.0
53019.0,STARLINK-4282,PAYLOAD,2024-05-03 16:32:31,15.08852397,0.0001219,53.2162,234.3161,89.5237,270.5895,0.0003096,4.644e-05,0.0,0 STARLINK-4282,1 53019U 22076AK  24124.68925434  .00004644  00000-0  30960-3 0  9998,2 53019  53.2162 234.3161 0001219  89.5237 270.5895 15.08852397101080,6917.842,95.437,540.551,538.864,0.0
53019.0,STARLINK-4282,PAYLOAD,2024-05-04 00:29:28,15.08834467,0.0002117,53.2159,232.8296,79.5911,280.532,8.6607e-05,1.09e-05,0.0,0 STARLINK-4282,1 53019U 22076AK  24125.02046713  .00001090  00000-0  86607-4 0  9993,2 53019  53.2159 232.8296 0002117  79.5911 280.5320 15.08834467101604,6917.897,95.438,541.227,538.298,0.0
53019.0,STARLINK-4282,PAYLOAD,2024-05-04 14:47:55,15.08859705,0.0001376,53.2159,230.1521,85.569,274.546,0.00042219,6.441e-05,0.0,0 STARLINK-4282,1 53019U 22076AK  24125.61661273  .00006441  00000-0  42219-3 0  9997,2 53019  53.2159 230.1521 0001376  85.5690 274.5460 15.08859705101692,6917.82,95.436,540.637,538.733,0.0
53019.0,STARLINK-4282,PAYLOAD,2024-05-05 00:20:14,15.08850719,0.0001457,53.2148,228.3694,85.9277,274.1881,0.00021645,3.16e-05,0.0,0 STARLINK-4282,1 53019U 22076AK  24126.01405464  .00003160  00000-0  21645-3 0  9995,2 53019  53.2148 228.3694 0001457  85.9277 274.1881 15.08850719101751,6917.848,95.437,540.721,538.705,0.0
53019.0,STARLINK-4282,PAYLOAD,2024-05-05 13:03:19,15.08845246,0.0001556,53.2162,225.9907,83.6615,276.4554,2.4606e-05,1.04e-06,0.0,0 STARLINK-4282,1 53019U 22076AK  24126.54397680  .00000104  00000-0  24606-4 0  9999,2 53019  53.2162 225.9907 0001556  83.6615 276.4554 15.08845246101838,6917.864,95.437,540.806,538.653,0.0
53019.0,STARLINK-4282,PAYLOAD,2024-05-06 12:54:06,15.08849409,0.0001552,53.2173,221.5302,88.768,271.349,3.7259e-06,-2.29e-06,0.0,0 STARLINK-4282,1 53019U 22076AK  24127.53757533 -.00000229  00000-0  37259-5 0  9994,2 53019  53.2173 221.5302 0001552  88.7680 271.3490 15.08849409101518,6917.852,95.437,540.79,538.643,0.0
53019.0,STARLINK-4282,PAYLOAD,2024-05-07 12:44:54,15.08837279,0.0001323,53.2164,217.0703,89.1133,271.0011,6.3142e-05,7.17e-06,0.0,0 STARLINK-4282,1 53019U 22076AK  24128.53118129  .00000717  00000-0  63142-4 0  9997,2 53019  53.2164 217.0703 0001323  89.1133 271.0011 15.08837279102134,6917.889,95.438,540.669,538.838,0.0
53019.0,STARLINK-4282,PAYLOAD,2024-05-07 15:55:40,15.08838451,0.0001274,53.216,216.4747,90.7513,269.3625,6.7509e-05,7.87e-06,0.0,0 STARLINK-4282,1 53019U 22076AK  24128.66366045  .00000787  00000-0  67509-4 0  9991,2 53019  53.2160 216.4747 0001274  90.7513 269.3625 15.08838451101689,6917.885,95.438,540.631,538.869,0.0
53019.0,STARLINK-4282,PAYLOAD,2024-05-08 12:35:40,15.08848579,0.0001361,53.216,212.609,81.774,278.3407,0.00014909,2.086e-05,0.0,0 STARLINK-4282,1 53019U 22076AK  24129.52477528  .00002086  00000-0  14909-3 0  9995,2 53019  53.2160 212.6090 0001361  81.7740 278.3407 15.08848579102284,6917.854,95.437,540.661,538.778,0.0
53019.0,STARLINK-4282,PAYLOAD,2024-05-08 22:07:59,15.08841108,0.0001434,53.2151,210.8254,70.3773,289.7374,8.1281e-05,1.006e-05,0.0,0 STARLINK-4282,1 53019U 22076AK  24129.92222073  .00001006  00000-0  81281-4 0  9991,2 53019  53.2151 210.8254 0001434  70.3773 289.7374 15.08841108101871,6917.877,95.437,540.734,538.75,0.0
53019.0,STARLINK-4282,PAYLOAD,2024-05-09 12:26:27,15.08842296,0.0001278,53.2161,208.1505,88.8865,271.2273,0.00010909,1.449e-05,0.0,0 STARLINK-4282,1 53019U 22076AK  24130.51837929  .00001449  00000-0  10909-3 0  9999,2 53019  53.2161 208.1505 0001278  88.8865 271.2273 15.08842296101966,6917.873,95.437,540.622,538.854,0.0
53019.0,STARLINK-4282,PAYLOAD,2024-05-10 04:20:19,15.08841063,0.0001306,53.2165,205.1774,97.2196,262.8944,0.00012575,1.714e-05,0.0,0 STARLINK-4282,1 53019U 22076AK  24131.18078182  .00001714  00000-0  12575-3 0  9997,2 53019  53.2165 205.1774 0001306  97.2196 262.8944 15.08841063102534,6917.877,95.437,540.646,538.839,0.0
53019.0,STARLINK-4282,PAYLOAD,2024-05-10 12:17:13,15.08872678,0.0001147,53.2165,203.6864,74.7319,285.38,0.00021886,3.2e-05,0.0,0 STARLINK-4282,1 53019U 22076AK  24131.51195908  .00003200  00000-0  21886-3 0  9997,2 53019  53.2165 203.6864 0001147  74.7319 285.3800 15.08872678102589,6917.781,95.435,540.439,538.852,0.0
53019.0,STARLINK-4282,PAYLOAD,2024-05-11 12:07:58,15.08917175,0.000157,53.2159,199.2327,110.6267,249.4894,0.0010604,0.00016664,0.0,0 STARLINK-4282,1 53019U 22076AK  24132.50553296  .00016664  00000-0  10604-2 0  9998,2 53019  53.2159 199.2327 0001570 110.6267 249.4894 15.08917175102731,6917.645,95.433,540.596,538.423,0.0
53019.0,STARLINK-4282,PAYLOAD,2024-05-11 21:40:18,15.08853852,0.0002277,53.2153,197.4453,68.8438,291.2798,-1.9686e-05,-6.02e-06,0.0,0 STARLINK-4282,1 53019U 22076AK  24132.90299611 -.00000602  00000-0 -19686-4 0  9998,2 53019  53.2153 197.4453 0002277  68.8438 291.2798 15.08853852102328,6917.838,95.437,541.278,538.128,0.0
53019.0,STARLINK-4282,PAYLOAD,2024-05-12 04:01:53,15.08776635,0.0001916,53.2156,196.254,79.0743,281.0465,-0.0016796,-0.00026874,0.0,0 STARLINK-4282,1 53019U 22076AK  24133.16798375 -.00026874  00000-0 -16796-2 0  9994,2 53019  53.2156 196.2540 0001916  79.0743 281.0465 15.08776635102834,6918.074,95.442,541.265,538.614,0.0
53019.0,STARLINK-4282,PAYLOAD,2024-05-12 10:23:28,15.08767255,0.0001607,53.2154,195.0653,66.178,293.938,-0.0012532,-0.00020138,0.0,0 STARLINK-4282,1 53019U 22076AK  24133.43297100 -.00020138  00000-0 -12532-2 0  9995,2 53019  53.2154 195.0653 0001607  66.1780 293.9380 15.08767255102879,6918.103,95.442,541.079,538.856,0.0
53019.0,STARLINK-4282,PAYLOAD,2024-05-12 21:31:10,15.087895,0.0001292,53.2163,192.9811,83.1299,276.984,-0.00062955,-0.00010279,0.0,0 STARLINK-4282,1 53019U 22076AK  24133.89665325 -.00010279  00000-0 -62955-3 0  9993,2 53019  53.2163 192.9811 0001292  83.1299 276.9840 15.08789500102942,6918.035,95.441,540.794,539.006,0.0
